ONEWEB-0311             
1 49097U 21075Y   25329.13121769 -.00000003  00000+0 -39876-4 0  9996
2 49097  87.9129  46.4296 0001542 110.2066 249.9231 13.17650544206752
ONEWEB-0312             
1 49098U 21075Z   25329.14640980 -.00001784  00000+0 -46289-2 0  9990
2 49098  87.9128  46.4539 0001594 103.3910 256.7399 13.17657468206731
ONEWEB-0313             
1 49099U 21075AA  25328.77167867  .00000181  00000+0  43413-3 0  9992
2 49099  87.9126  46.5367 0001647 102.8846 257.2469 13.17650301206677
ONEWEB-0314             
1 49100U 21075AB  25329.11772198  .00000160  00000+0  37915-3 0  9990
2 49100  87.9134  46.4175 0001401  97.6723 262.4568 13.17647812206691
ONEWEB-0315             
1 49101U 21075AC  25329.12250869 -.00000281  00000+0 -81682-3 0  9994
2 49101  87.8957  31.1802 0001576 110.8623 249.2674 13.12443077208406
ONEWEB-0316             
1 49102U 21075AD  25329.12695281  .00000059  00000+0  11699-3 0  9998
2 49102  87.9200  15.9981 0001810 101.8850 258.2485 13.18684952210318
ONEWEB-0317             
1 49103U 21075AE  25329.11601697 -.00000107  00000+0 -33322-3 0  9999
2 49103  87.8963  31.1988 0002301  83.6185 276.5206 13.12442543208420
ONEWEB-0318             
1 49104U 21075AF  25329.12365075  .00000096  00000+0  21024-3 0  9999
2 49104  87.9200  15.9861 0001612 103.6162 256.5149 13.18685028210271
ONEWEB-0319             
1 49105U 21075AG  25328.98103757  .00000232  00000+0  56365-3 0  9998
2 49105  87.9129  46.4808 0001355 106.2252 253.9029 13.17648658206714
ONEWEB-0323             
1 49106U 21075AH  25329.10629155  .00000148  00000+0  37475-3 0  9996
2 49106  87.8961  31.1873 0001167 112.0371 248.0882 13.12441675207784
ONEWEB-0329             
1 49107U 21075AJ  25329.14135786  .00000083  00000+0  18007-3 0  9991
2 49107  87.9123  46.4506 0001674 103.1906 256.9413 13.17648690206717
ONEWEB-0330             
1 49108U 21075AK  25329.14218856  .00000106  00000+0  23983-3 0  9997
2 49108  87.9127  46.4560 0001676  96.1448 263.9874 13.17648028206754
ONEWEB-0292             
1 49186U 21083A   25329.08579111  .00000414  00000+0  10988-2 0  9991
2 49186  87.8987   0.8299 0001692  99.3262 260.8059 13.13470449204130
ONEWEB-0303             
1 49187U 21083B   25329.12035537  .00000061  00000+0  12215-3 0  9990
2 49187  87.9201  15.9878 0001686 102.4173 257.7148 13.18684372203085
ONEWEB-0306             
1 49188U 21083C   25329.11046198  .00000002  00000+0 -26720-4 0  9998
2 49188  87.9200  15.9747 0002000  93.2389 266.8972 13.18683747203123
ONEWEB-0307             
1 49189U 21083D   25329.07985744  .00000370  00000+0  97962-3 0  9995
2 49189  87.8982   0.8233 0001806  95.9770 264.1565 13.13468644204132
ONEWEB-0320             
1 49190U 21083E   25329.11788436 -.00000506  00000+0 -13154-2 0  9994
2 49190  87.9192  16.0031 0002019  86.3140 273.8223 13.18686152203087
