[{"OBJECT_NAME":"ONEWEB-0311","OBJECT_ID":"2021-075Y","EPOCH":"2025-11-25T03:08:57.208416","MEAN_MOTION":13.17650544,"ECCENTRICITY":0.0001542,"INCLINATION":87.9129,"RA_OF_ASC_NODE":46.4296,"ARG_OF_PERICENTER":110.2066,"MEAN_ANOMALY":249.9231,"EPHEMERIS_TYPE":0,"CLASSIFICATION_TYPE":"U","NORAD_CAT_ID":49097,"ELEMENT_SET_NO":999,"REV_AT_EPOCH":20675,"BSTAR":-3.9876e-5,"MEAN_MOTION_DOT":-3.0e-8,"MEAN_MOTION_DDOT":0},{"OBJECT_NAME":"ONEWEB-0312","OBJECT_ID":"2021-075Z","EPOCH":"2025-11-25T03:30:49.806720","MEAN_MOTION":13.17657468,"ECCENTRICITY":0.0001594,"INCLINATION":87.9128,"RA_OF_ASC_NODE":46.4539,"ARG_OF_PERICENTER":103.391,"MEAN_ANOMALY":256.7399,"EPHEMERIS_TYPE":0,"CLASSIFICATION_TYPE":"U","NORAD_CAT_ID":49098,"ELEMENT_SET_NO":999,"REV_AT_EPOCH":20673,"BSTAR":-0.0046289,"MEAN_MOTION_DOT":-1.784e-5,"MEAN_MOTION_DDOT":0},{"OBJECT_NAME":"ONEWEB-0313","OBJECT_ID":"2021-075AA","EPOCH":"2025-11-24T18:31:13.037088","MEAN_MOTION":13.17650301,"ECCENTRICITY":0.0001647,"INCLINATION":87.9126,"RA_OF_ASC_NODE":46.5367,"ARG_OF_PERICENTER":102.8846,"MEAN_ANOMALY":257.2469,"EPHEMERIS_TYPE":0,"CLASSIFICATION_TYPE":"U","NORAD_CAT_ID":49099,"ELEMENT_SET_NO":999,"REV_AT_EPOCH":20667,"BSTAR":0.00043413,"MEAN_MOTION_DOT":1.81e-6,"MEAN_MOTION_DDOT":0},{"OBJECT_NAME":"ONEWEB-0314","OBJECT_ID":"2021-075AB","EPOCH":"2025-11-25T02:49:31.179072","MEAN_MOTION":13.17647812,"ECCENTRICITY":0.0001401,"INCLINATION":87.9134,"RA_OF_ASC_NODE":46.4175,"ARG_OF_PERICENTER":97.6723,"MEAN_ANOMALY":262.4568,"EPHEMERIS_TYPE":0,"CLASSIFICATION_TYPE":"U","NORAD_CAT_ID":49100,"ELEMENT_SET_NO":999,"REV_AT_EPOCH":20669,"BSTAR":0.00037915,"MEAN_MOTION_DOT":1.6e-6,"MEAN_MOTION_DDOT":0},{"OBJECT_NAME":"ONEWEB-0315","OBJECT_ID":"2021-075AC","EPOCH":"2025-11-25T02:56:24.750816","MEAN_MOTION":13.12443077,"ECCENTRICITY":0.0001576,"INCLINATION":87.8957,"RA_OF_ASC_NODE":31.1802,"ARG_OF_PERICENTER":110.8623,"MEAN_ANOMALY":249.2674,"EPHEMERIS_TYPE":0,"CLASSIFICATION_TYPE":"U","NORAD_CAT_ID":49101,"ELEMENT_SET_NO":999,"REV_AT_EPOCH":20840,"BSTAR":-0.00081682,"MEAN_MOTION_DOT":-2.81e-6,"MEAN_MOTION_DDOT":0},{"OBJECT_NAME":"ONEWEB-0316","OBJECT_ID":"2021-075AD","EPOCH":"2025-11-25T03:02:48.722784","MEAN_MOTION":13.18684952,"ECCENTRICITY":0.000181,"INCLINATION":87.92,"RA_OF_ASC_NODE":15.9981,"ARG_OF_PERICENTER":101.885,"MEAN_ANOMALY":258.2485,"EPHEMERIS_TYPE":0,"CLASSIFICATION_TYPE":"U","NORAD_CAT_ID":49102,"ELEMENT_SET_NO":999,"REV_AT_EPOCH":21031,"BSTAR":0.00011699,"MEAN_MOTION_DOT":5.9e-7,"MEAN_MOTION_DDOT":0},{"OBJECT_NAME":"ONEWEB-0317","OBJECT_ID":"2021-075AE","EPOCH":"2025-11-25T02:47:03.866208","MEAN_MOTION":13.12442543,"ECCENTRICITY":0.0002301,"INCLINATION":87.8963,"RA_OF_ASC_NODE":31.1988,"ARG_OF_PERICENTER":83.6185,"MEAN_ANOMALY":276.5206,"EPHEMERIS_TYPE":0,"CLASSIFICATION_TYPE":"U","NORAD_CAT_ID":49103,"ELEMENT_SET_NO":999,"REV_AT_EPOCH":20842,"BSTAR":-0.00033322,"MEAN_MOTION_DOT":-1.07e-6,"MEAN_MOTION_DDOT":0},{"OBJECT_NAME":"ONEWEB-0318","OBJECT_ID":"2021-075AF","EPOCH":"2025-11-25T02:58:03.424800","MEAN_MOTION":13.18685028,"ECCENTRICITY":0.0001612,"INCLINATION":87.92,"RA_OF_ASC_NODE":15.9861,"ARG_OF_PERICENTER":103.6162,"MEAN_ANOMALY":256.5149,"EPHEMERIS_TYPE":0,"CLASSIFICATION_TYPE":"U","NORAD_CAT_ID":49104,"ELEMENT_SET_NO":999,"REV_AT_EPOCH":21027,"BSTAR":0.00021024,"MEAN_MOTION_DOT":9.6e-7,"MEAN_MOTION_DDOT":0},{"OBJECT_NAME":"ONEWEB-0319","OBJECT_ID":"2021-075AG","EPOCH":"2025-11-24T23:32:41.646048","MEAN_MOTION":13.17648658,"ECCENTRICITY":0.0001355,"INCLINATION":87.9129,"RA_OF_ASC_NODE":46.4808,"ARG_OF_PERICENTER":106.2252,"MEAN_ANOMALY":253.9029,"EPHEMERIS_TYPE":0,"CLASSIFICATION_TYPE":"U","NORAD_CAT_ID":49105,"ELEMENT_SET_NO":999,"REV_AT_EPOCH":20671,"BSTAR":0.00056365,"MEAN_MOTION_DOT":2.32e-6,"MEAN_MOTION_DDOT":0},{"OBJECT_NAME":"ONEWEB-0323","OBJECT_ID":"2021-075AH","EPOCH":"2025-11-25T02:33:03.589920","MEAN_MOTION":13.12441675,"ECCENTRICITY":0.0001167,"INCLINATION":87.8961,"RA_OF_ASC_NODE":31.1873,"ARG_OF_PERICENTER":112.0371,"MEAN_ANOMALY":248.0882,"EPHEMERIS_TYPE":0,"CLASSIFICATION_TYPE":"U","NORAD_CAT_ID":49106,"ELEMENT_SET_NO":999,"REV_AT_EPOCH":20778,"BSTAR":0.00037475,"MEAN_MOTION_DOT":1.48e-6,"MEAN_MOTION_DDOT":0},{"OBJECT_NAME":"ONEWEB-0329","OBJECT_ID":"2021-075AJ","EPOCH":"2025-11-25T03:23:33.319104","MEAN_MOTION":13.1764869,"ECCENTRICITY":0.0001674,"INCLINATION":87.9123,"RA_OF_ASC_NODE":46.4506,"ARG_OF_PERICENTER":103.1906,"MEAN_ANOMALY":256.9413,"EPHEMERIS_TYPE":0,"CLASSIFICATION_TYPE":"U","NORAD_CAT_ID":49107,"ELEMENT_SET_NO":999,"REV_AT_EPOCH":20671,"BSTAR":0.00018007,"MEAN_MOTION_DOT":8.3e-7,"MEAN_MOTION_DDOT":0},{"OBJECT_NAME":"ONEWEB-0330","OBJECT_ID":"2021-075AK","EPOCH":"2025-11-25T03:24:45.091584","MEAN_MOTION":13.17648028,"ECCENTRICITY":0.0001676,"INCLINATION":87.9127,"RA_OF_ASC_NODE":46.456,"ARG_OF_PERICENTER":96.1448,"MEAN_ANOMALY":263.9874,"EPHEMERIS_TYPE":0,"CLASSIFICATION_TYPE":"U","NORAD_CAT_ID":49108,"ELEMENT_SET_NO":999,"REV_AT_EPOCH":20675,"BSTAR":0.00023983,"MEAN_MOTION_DOT":1.06e-6,"MEAN_MOTION_DDOT":0},{"OBJECT_NAME":"ONEWEB-0292","OBJECT_ID":"2021-083A","EPOCH":"2025-11-25T02:03:32.351904","MEAN_MOTION":13.13470449,"ECCENTRICITY":0.0001692,"INCLINATION":87.8987,"RA_OF_ASC_NODE":0.8299,"ARG_OF_PERICENTER":99.3262,"MEAN_ANOMALY":260.8059,"EPHEMERIS_TYPE":0,"CLASSIFICATION_TYPE":"U","NORAD_CAT_ID":49186,"ELEMENT_SET_NO":999,"REV_AT_EPOCH":20413,"BSTAR":0.0010988,"MEAN_MOTION_DOT":4.14e-6,"MEAN_MOTION_DDOT":0},{"OBJECT_NAME":"ONEWEB-0303","OBJECT_ID":"2021-083B","EPOCH":"2025-11-25T02:53:18.703968","MEAN_MOTION":13.18684372,"ECCENTRICITY":0.0001686,"INCLINATION":87.9201,"RA_OF_ASC_NODE":15.9878,"ARG_OF_PERICENTER":102.4173,"MEAN_ANOMALY":257.7148,"EPHEMERIS_TYPE":0,"CLASSIFICATION_TYPE":"U","NORAD_CAT_ID":49187,"ELEMENT_SET_NO":999,"REV_AT_EPOCH":20308,"BSTAR":0.00012215,"MEAN_MOTION_DOT":6.1e-7,"MEAN_MOTION_DDOT":0},{"OBJECT_NAME":"ONEWEB-0306","OBJECT_ID":"2021-083C","EPOCH":"2025-11-25T02:39:03.915072","MEAN_MOTION":13.18683747,"ECCENTRICITY":0.0002,"INCLINATION":87.92,"RA_OF_ASC_NODE":15.9747,"ARG_OF_PERICENTER":93.2389,"MEAN_ANOMALY":266.8972,"EPHEMERIS_TYPE":0,"CLASSIFICATION_TYPE":"U","NORAD_CAT_ID":49188,"ELEMENT_SET_NO":999,"REV_AT_EPOCH":20312,"BSTAR":-2.672e-5,"MEAN_MOTION_DOT":2.0e-8,"MEAN_MOTION_DDOT":0},{"OBJECT_NAME":"ONEWEB-0307","OBJECT_ID":"2021-083D","EPOCH":"2025-11-25T01:54:59.682816","MEAN_MOTION":13.13468644,"ECCENTRICITY":0.0001806,"INCLINATION":87.8982,"RA_OF_ASC_NODE":0.8233,"ARG_OF_PERICENTER":95.977,"MEAN_ANOMALY":264.1565,"EPHEMERIS_TYPE":0,"CLASSIFICATION_TYPE":"U","NORAD_CAT_ID":49189,"ELEMENT_SET_NO":999,"REV_AT_EPOCH":20413,"BSTAR":0.00097962,"MEAN_MOTION_DOT":3.7e-6,"MEAN_MOTION_DDOT":0},{"OBJECT_NAME":"ONEWEB-0320","OBJECT_ID":"2021-083E","EPOCH":"2025-11-25T02:49:45.208704","MEAN_MOTION":13.18686152,"ECCENTRICITY":0.0002019,"INCLINATION":87.9192,"RA_OF_ASC_NODE":16.0031,"ARG_OF_PERICENTER":86.314,"MEAN_ANOMALY":273.8223,"EPHEMERIS_TYPE":0,"CLASSIFICATION_TYPE":"U","NORAD_CAT_ID":49190,"ELEMENT_SET_NO":999,"REV_AT_EPOCH":20308,"BSTAR":-0.0013154,"MEAN_MOTION_DOT":-5.06e-6,"MEAN_MOTION_DDOT":0}]
